STARLINK-32688          
1 62193U 24229B   26068.90536925  .00030582  00000+0  11160-2 0  9999
2 62193  43.0005 269.5579 0002173 250.8853 109.1764 15.27587362 70597
TEVEL2-2                
1 63219U 25052K   26068.64848259  .00020339  00000+0  69428-3 0  9991
2 63219  97.3987 324.7700 0004693 105.7930 254.3828 15.30343745 54855
