[{"OBJECT_NAME":"STARLINK-32688","OBJECT_ID":"2024-229B","EPOCH":"2026-03-09T21:43:43.904064","MEAN_MOTION":15.27587362,"ECCENTRICITY":0.00021729,"INCLINATION":43.0005,"RA_OF_ASC_NODE":269.5579,"ARG_OF_PERICENTER":250.8853,"MEAN_ANOMALY":109.1764,"EPHEMERIS_TYPE":0,"CLASSIFICATION_TYPE":"U","NORAD_CAT_ID":62193,"ELEMENT_SET_NO":999,"REV_AT_EPOCH":7059,"BSTAR":0.0011159597,"MEAN_MOTION_DOT":0.00030582,"MEAN_MOTION_DDOT":0},{"OBJECT_NAME":"TEVEL2-2","OBJECT_ID":"2025-052K","EPOCH":"2026-03-09T15:33:48.895776","MEAN_MOTION":15.30343745,"ECCENTRICITY":0.0004693,"INCLINATION":97.3987,"RA_OF_ASC_NODE":324.77,"ARG_OF_PERICENTER":105.793,"MEAN_ANOMALY":254.3828,"EPHEMERIS_TYPE":0,"CLASSIFICATION_TYPE":"U","NORAD_CAT_ID":63219,"ELEMENT_SET_NO":999,"REV_AT_EPOCH":5485,"BSTAR":0.00069428,"MEAN_MOTION_DOT":0.00020339,"MEAN_MOTION_DDOT":0}]
